OBJECT_NAME,OBJECT_ID,EPOCH,MEAN_MOTION,ECCENTRICITY,INCLINATION,RA_OF_ASC_NODE,ARG_OF_PERICENTER,MEAN_ANOMALY,EPHEMERIS_TYPE,CLASSIFICATION_TYPE,NORAD_CAT_ID,ELEMENT_SET_NO,REV_AT_EPOCH,BSTAR,MEAN_MOTION_DOT,MEAN_MOTION_DDOT
STARLINK-5905,2023-042A,2025-03-11T04:07:05.336256,15.02498290,.00012,43.0045,231.7252,275.8331,84.2374,0,U,55986,999,10856,.50766E-3,.6654E-4,0
STARLINK-5915,2023-042B,2025-03-10T19:42:51.761952,15.02528609,.0001155,43.0018,233.3985,273.8127,86.2583,0,U,55987,999,10817,.90138E-4,.1014E-4,0
STARLINK-5916,2023-042C,2025-03-11T03:11:20.669568,15.03271020,.0000525,43.0027,231.4449,301.5307,58.5484,0,U,55988,999,10856,-.65136E-3,-.9165E-4,0
STARLINK-5947,2023-042D,2025-03-11T03:51:05.359680,15.02535819,.0001228,43.0031,231.6428,273.1150,86.9552,0,U,55989,999,10856,-.40435E-4,-.75E-5,0
STARLINK-5946,2023-042E,2025-03-10T15:16:27.535584,15.02516756,.0001049,43.0027,234.5918,256.9134,103.1591,0,U,55990,999,10814,.19421E-3,.2419E-4,0
STARLINK-5948,2023-042F,2025-03-11T03:28:41.768832,15.02581530,.000114,43.0025,231.5231,283.3642,76.7073,0,U,55991,999,10856,-.67738E-3,-.9353E-4,0
STARLINK-5969,2023-042H,2025-03-10T19:57:15.245280,15.02543172,.0001574,43.0027,233.4729,268.4555,91.6107,0,U,55993,999,10817,.16297E-3,.1999E-4,0
STARLINK-5956,2023-042J,2025-03-10T19:39:39.871872,15.02530176,.0001316,43.0039,233.3832,262.5699,97.4994,0,U,55994,999,10817,.32556E-4,.236E-5,0
STARLINK-5957,2023-042K,2025-03-10T21:23:23.835840,15.02541610,.0001193,43.0023,233.0618,268.0144,92.0561,0,U,55995,999,10852,.1901E-3,.2366E-4,0
STARLINK-5903,2023-042L,2025-03-10T19:20:29.200128,15.02528646,.0001331,43.0028,233.2811,274.0692,85.9998,0,U,55996,999,10817,-.26695E-4,-.564E-5,0
STARLINK-5902,2023-042N,2025-03-10T20:49:49.345536,15.02535657,.0001341,43.0036,232.8867,271.1982,88.8707,0,U,55998,999,10852,-.39467E-4,-.737E-5,0
STARLINK-5901,2023-042P,2025-03-10T21:01:00.115392,15.02541435,.0001071,43.0052,232.9486,270.9540,89.1180,0,U,55999,999,10818,-.2084E-3,-.3018E-4,0
STARLINK-5910,2023-042Q,2025-03-10T20:32:14.312544,15.02533663,.0001199,43.0028,232.7919,268.1403,91.9302,0,U,56000,999,10818,.70088E-5,-.109E-5,0
STARLINK-5944,2023-042R,2025-03-10T20:45:01.357920,15.02546854,.0001428,43.0025,232.8616,267.9088,92.1591,0,U,56001,999,10818,.21652E-3,.2723E-4,0
STARLINK-5799,2023-042S,2025-03-10T20:37:02.134272,15.02535492,.0001367,43.0047,232.8185,275.2715,84.7972,0,U,56002,999,10818,-.4715E-4,-.84E-5,0
STARLINK-5789,2023-042T,2025-03-10T20:54:37.958688,15.02480174,.0001002,43.0045,232.9104,269.4244,90.6484,0,U,56003,999,10852,.85857E-3,.11396E-3,0
STARLINK-5787,2023-042U,2025-03-10T20:27:26.667072,15.02531750,.0001472,43.0045,232.7719,263.0011,97.0664,0,U,56004,999,10818,-.25991E-4,-.555E-5,0
STARLINK-5801,2023-042V,2025-03-11T03:04:44.357088,15.02536100,.0001372,43.0025,231.4022,273.2576,86.8110,0,U,56005,999,10856,.3355E-4,.25E-5,0
STARLINK-5794,2023-042W,2025-03-10T20:21:02.997504,15.02536447,.0001695,43.0028,232.7330,274.8130,85.2519,0,U,56006,999,10818,.14887E-4,-.3E-7,0
STARLINK-5806,2023-042X,2025-03-10T20:25:49.692576,15.02567237,.0001566,43.0055,232.7625,264.5994,95.4669,0,U,56007,999,10818,-.52857E-3,-.7342E-4,0
STARLINK-5803,2023-042Y,2025-03-11T03:21:07.405920,15.01723853,.0001519,43.0036,231.4763,267.2438,92.8230,0,U,56008,999,10856,.10395E-4,-.65E-6,0
STARLINK-5964,2023-042Z,2025-03-10T20:22:39.045792,15.02531805,.0001396,43.0037,232.7420,265.1537,94.9146,0,U,56009,999,10818,-.42079E-4,-.772E-5,0
STARLINK-5968,2023-042AA,2025-03-10T20:16:15.487680,15.02529944,.0001398,43.0027,232.7107,269.4268,90.6414,0,U,56010,999,10818,.30637E-4,.21E-5,0
STARLINK-5936,2023-042AB,2025-03-11T02:36:30.951648,15.02519614,.0001458,43.0033,219.0977,267.0331,93.0344,0,U,56011,999,10870,.16184E-3,.1982E-4,0
STARLINK-5940,2023-042AC,2025-03-10T17:10:07.942944,15.02533366,.0000835,43.0009,221.3106,272.1169,87.9577,0,U,56012,999,10830,-.39246E-4,-.734E-5,0
STARLINK-5941,2023-042AD,2025-03-10T20:11:27.629664,15.02535231,.0001635,43.0045,232.6815,273.9334,86.1321,0,U,56013,999,10818,-.12254E-5,-.22E-5,0
STARLINK-5942,2023-042AE,2025-03-10T20:11:59.958816,15.02530502,.0001323,43.0039,220.5386,266.1315,93.9376,0,U,56014,999,10832,.41446E-4,.356E-5,0
STARLINK-5939,2023-042AF,2025-03-11T02:39:42.452928,15.02527377,.0001964,43.0027,219.1149,291.6467,68.4166,0,U,56015,999,10870,.12768E-3,.1521E-4,0
