STARLINK-5905           
1 55986U 23042A   25070.17158954  .00006654  00000+0  50766-3 0  9995
2 55986  43.0045 231.7252 0001200 275.8331  84.2374 15.02498290108563
STARLINK-5915           
1 55987U 23042B   25069.82143243  .00001014  00000+0  90138-4 0  9994
2 55987  43.0018 233.3985 0001155 273.8127  86.2583 15.02528609108174
STARLINK-5916           
1 55988U 23042C   25070.13287812 -.00009165  00000+0 -65136-3 0  9998
2 55988  43.0027 231.4449 0000525 301.5307  58.5484 15.03271020108566
STARLINK-5947           
1 55989U 23042D   25070.16047870 -.00000750  00000+0 -40435-4 0  9997
2 55989  43.0031 231.6428 0001228 273.1150  86.9552 15.02535819108561
STARLINK-5946           
1 55990U 23042E   25069.63642981  .00002419  00000+0  19421-3 0  9995
2 55990  43.0027 234.5918 0001049 256.9134 103.1591 15.02516756108144
STARLINK-5948           
1 55991U 23042F   25070.14492788 -.00009353  00000+0 -67738-3 0  9992
2 55991  43.0025 231.5231 0001140 283.3642  76.7073 15.02581530108566
STARLINK-5969           
1 55993U 23042H   25069.83142645  .00001999  00000+0  16297-3 0  9992
2 55993  43.0027 233.4729 0001574 268.4555  91.6107 15.02543172108172
STARLINK-5956           
1 55994U 23042J   25069.81921148  .00000236  00000+0  32556-4 0  9994
2 55994  43.0039 233.3832 0001316 262.5699  97.4994 15.02530176108176
STARLINK-5957           
1 55995U 23042K   25069.89124810  .00002366  00000+0  19010-3 0  9999
2 55995  43.0023 233.0618 0001193 268.0144  92.0561 15.02541610108523
STARLINK-5903           
1 55996U 23042L   25069.80589352 -.00000564  00000+0 -26695-4 0  9995
2 55996  43.0028 233.2811 0001331 274.0692  85.9998 15.02528646108175
STARLINK-5902           
1 55998U 23042N   25069.86793224 -.00000737  00000+0 -39467-4 0  9991
2 55998  43.0036 232.8867 0001341 271.1982  88.8707 15.02535657108522
STARLINK-5901           
1 55999U 23042P   25069.87569578 -.00003018  00000+0 -20840-3 0  9995
2 55999  43.0052 232.9486 0001071 270.9540  89.1180 15.02541435108188
STARLINK-5910           
1 56000U 23042Q   25069.85572121 -.00000109  00000+0  70088-5 0  9993
2 56000  43.0028 232.7919 0001199 268.1403  91.9302 15.02533663108183
STARLINK-5944           
1 56001U 23042R   25069.86459905  .00002723  00000+0  21652-3 0  9993
2 56001  43.0025 232.8616 0001428 267.9088  92.1591 15.02546854108186
STARLINK-5799           
1 56002U 23042S   25069.85905248 -.00000840  00000+0 -47150-4 0  9991
2 56002  43.0047 232.8185 0001367 275.2715  84.7972 15.02535492108189
STARLINK-5789           
1 56003U 23042T   25069.87127267  .00011396  00000+0  85857-3 0  9992
2 56003  43.0045 232.9104 0001002 269.4244  90.6484 15.02480174108526
STARLINK-5787           
1 56004U 23042U   25069.85239198 -.00000555  00000+0 -25991-4 0  9999
2 56004  43.0045 232.7719 0001472 263.0011  97.0664 15.02531750108180
STARLINK-5801           
1 56005U 23042V   25070.12829117  .00000250  00000+0  33550-4 0  9998
2 56005  43.0025 231.4022 0001372 273.2576  86.8110 15.02536100108568
STARLINK-5794           
1 56006U 23042W   25069.84795136 -.00000003  00000+0  14887-4 0  9998
2 56006  43.0028 232.7330 0001695 274.8130  85.2519 15.02536447108187
STARLINK-5806           
1 56007U 23042X   25069.85126959 -.00007342  00000+0 -52857-3 0  9993
2 56007  43.0055 232.7625 0001566 264.5994  95.4669 15.02567237108186
STARLINK-5803           
1 56008U 23042Y   25070.13966905 -.00000065  00000+0  10395-4 0  9996
2 56008  43.0036 231.4763 0001519 267.2438  92.8230 15.01723853108560
STARLINK-5964           
1 56009U 23042Z   25069.84906303 -.00000772  00000+0 -42079-4 0  9999
2 56009  43.0037 232.7420 0001396 265.1537  94.9146 15.02531805108188
STARLINK-5968           
1 56010U 23042AA  25069.84462370  .00000210  00000+0  30637-4 0  9994
2 56010  43.0027 232.7107 0001398 269.4268  90.6414 15.02529944108183
STARLINK-5936           
1 56011U 23042AB  25070.10869157  .00001982  00000+0  16184-3 0  9997
2 56011  43.0033 219.0977 0001458 267.0331  93.0344 15.02519614108706
STARLINK-5940           
1 56012U 23042AC  25069.71536971 -.00000734  00000+0 -39246-4 0  9999
2 56012  43.0009 221.3106 0000835 272.1169  87.9577 15.02533366108300
STARLINK-5941           
1 56013U 23042AD  25069.84129201 -.00000220  00000+0 -12254-5 0  9999
2 56013  43.0045 232.6815 0001635 273.9334  86.1321 15.02535231108182
STARLINK-5942           
1 56014U 23042AE  25069.84166619  .00000356  00000+0  41446-4 0  9996
2 56014  43.0039 220.5386 0001323 266.1315  93.9376 15.02530502108320
STARLINK-5939           
1 56015U 23042AF  25070.11090802  .00001521  00000+0  12768-3 0  9998
2 56015  43.0027 219.1149 0001964 291.6467  68.4166 15.02527377108703
